[{"OBJECT_NAME":"OBJECT B","OBJECT_ID":"2024-205B","EPOCH":"2026-03-09T23:46:05.115936","MEAN_MOTION":15.28158697,"ECCENTRICITY":0.00105957,"INCLINATION":97.4192,"RA_OF_ASC_NODE":146.9311,"ARG_OF_PERICENTER":34.0947,"MEAN_ANOMALY":326.0972,"EPHEMERIS_TYPE":0,"CLASSIFICATION_TYPE":"U","NORAD_CAT_ID":61895,"ELEMENT_SET_NO":999,"REV_AT_EPOCH":7352,"BSTAR":0.00054154807,"MEAN_MOTION_DOT":0.00014827,"MEAN_MOTION_DDOT":0},{"OBJECT_NAME":"STARLINK-34718","OBJECT_ID":"2025-157H","EPOCH":"2026-03-09T21:39:59.120640","MEAN_MOTION":15.30213386,"ECCENTRICITY":0.00012893,"INCLINATION":53.1606,"RA_OF_ASC_NODE":344.8785,"ARG_OF_PERICENTER":111.2963,"MEAN_ANOMALY":248.8175,"EPHEMERIS_TYPE":0,"CLASSIFICATION_TYPE":"U","NORAD_CAT_ID":64911,"ELEMENT_SET_NO":999,"REV_AT_EPOCH":3615,"BSTAR":0.0010377307,"MEAN_MOTION_DOT":0.00030514,"MEAN_MOTION_DDOT":0}]
